{
  "type": "FeatureCollection",
  "features": [
    {
      "type": "Feature",
      "properties": {
        "norad_id": 28054,
        "name": "DMSP 5D-3 F16 (USA 172)",
        "group": "weather",
        "lat": -18.94566085847575,
        "lon": 178.63982311148817,
        "alt_km": 852.3048730047567,
        "timestamp": "2025-12-10T07:43:54.417051+00:00",
        "meta_object_name": "DMSP 5D-3 F16 (USA 172)",
        "meta_object_id": "2003-048A",
        "meta_epoch": "2025-12-09T21:11:48.155136",
        "meta_mean_motion": 14.14422858,
        "meta_eccentricity": 0.0006594,
        "meta_inclination": 99.0048,
        "meta_ra_of_asc_node": 1.3177,
        "meta_arg_of_pericenter": 329.7527,
        "meta_mean_anomaly": 155.4673,
        "meta_ephemeris_type": 0,
        "meta_classification_type": "U",
        "meta_norad_cat_id": 28054,
        "meta_element_set_no": 999,
        "meta_rev_at_epoch": 14272,
        "meta_bstar": 0.00015362,
        "meta_mean_motion_dot": 2.49e-06,
        "meta_mean_motion_ddot": 0,
        "tle_line1": "1 28054U 03048A   25343.88319624  .00000249  00000+0  15362-3 0  9996",
        "tle_line2": "2 28054  99.0048   1.3177 0006594 329.7527 155.4673 14.14422858142725"
      },
      "geometry": {
        "type": "Point",
        "coordinates": [
          178.63982311148817,
          -18.94566085847575
        ]
      }
    },
    {
      "type": "Feature",
      "properties": {
        "norad_id": 28912,
        "name": "METEOSAT-9 (MSG-2)",
        "group": "weather",
        "lat": -0.7776244258918825,
        "lon": -119.13970471540928,
        "alt_km": 35769.15448525665,
        "timestamp": "2025-12-10T07:43:54.417099+00:00",
        "meta_object_name": "METEOSAT-9 (MSG-2)",
        "meta_object_id": "2005-049B",
        "meta_epoch": "2025-12-08T20:40:05.248704",
        "meta_mean_motion": 1.00274262,
        "meta_eccentricity": 0.000384,
        "meta_inclination": 8.931,
        "meta_ra_of_asc_node": 56.0124,
        "meta_arg_of_pericenter": 190.0622,
        "meta_mean_anomaly": 187.4345,
        "meta_ephemeris_type": 0,
        "meta_classification_type": "U",
        "meta_norad_cat_id": 28912,
        "meta_element_set_no": 999,
        "meta_rev_at_epoch": 509,
        "meta_bstar": 0,
        "meta_mean_motion_dot": 1.23e-06,
        "meta_mean_motion_ddot": 0,
        "tle_line1": "1 28912U 05049B   25342.86117186  .00000123  00000+0  00000+0 0  9998",
        "tle_line2": "2 28912   8.9310  56.0124 0003840 190.0622 187.4345  1.00274262  5098"
      },
      "geometry": {
        "type": "Point",
        "coordinates": [
          -119.13970471540928,
          -0.7776244258918825
        ]
      }
    },
    {
      "type": "Feature",
      "properties": {
        "norad_id": 29522,
        "name": "DMSP 5D-3 F17 (USA 191)",
        "group": "weather",
        "lat": 44.106775398310795,
        "lon": 178.33625637629913,
        "alt_km": 839.6675809821536,
        "timestamp": "2025-12-10T07:43:54.417116+00:00",
        "meta_object_name": "DMSP 5D-3 F17 (USA 191)",
        "meta_object_id": "2006-050A",
        "meta_epoch": "2025-12-09T19:12:50.793696",
        "meta_mean_motion": 14.14917743,
        "meta_eccentricity": 0.0009297,
        "meta_inclination": 98.7393,
        "meta_ra_of_asc_node": 349.2509,
        "meta_arg_of_pericenter": 233.9876,
        "meta_mean_anomaly": 126.0436,
        "meta_ephemeris_type": 0,
        "meta_classification_type": "U",
        "meta_norad_cat_id": 29522,
        "meta_element_set_no": 999,
        "meta_rev_at_epoch": 98563,
        "meta_bstar": 0.00017949,
        "meta_mean_motion_dot": 3.04e-06,
        "meta_mean_motion_ddot": 0,
        "tle_line1": "1 29522U 06050A   25343.80058789  .00000304  00000+0  17949-3 0  9992",
        "tle_line2": "2 29522  98.7393 349.2509 0009297 233.9876 126.0436 14.14917743985632"
      },
      "geometry": {
        "type": "Point",
        "coordinates": [
          178.33625637629913,
          44.106775398310795
        ]
      }
    },
    {
      "type": "Feature",
      "properties": {
        "norad_id": 32958,
        "name": "FENGYUN 3A",
        "group": "weather",
        "lat": 10.460099252202163,
        "lon": 105.51385532901716,
        "alt_km": 833.409692215093,
        "timestamp": "2025-12-10T07:43:54.417129+00:00",
        "meta_object_name": "FENGYUN 3A",
        "meta_object_id": "2008-026A",
        "meta_epoch": "2025-12-09T19:05:40.330752",
        "meta_mean_motion": 14.19513133,
        "meta_eccentricity": 0.0008032,
        "meta_inclination": 98.6694,
        "meta_ra_of_asc_node": 283.3844,
        "meta_arg_of_pericenter": 319.7099,
        "meta_mean_anomaly": 40.3482,
        "meta_ephemeris_type": 0,
        "meta_classification_type": "U",
        "meta_norad_cat_id": 32958,
        "meta_element_set_no": 999,
        "meta_rev_at_epoch": 90853,
        "meta_bstar": 0.00012769,
        "meta_mean_motion_dot": 2.26e-06,
        "meta_mean_motion_ddot": 0,
        "tle_line1": "1 32958U 08026A   25343.79560568  .00000226  00000+0  12769-3 0  9993",
        "tle_line2": "2 32958  98.6694 283.3844 0008032 319.7099  40.3482 14.19513133908531"
      },
      "geometry": {
        "type": "Point",
        "coordinates": [
          105.51385532901716,
          10.460099252202163
        ]
      }
    },
    {
      "type": "Feature",
      "properties": {
        "norad_id": 35491,
        "name": "GOES 14",
        "group": "weather",
        "lat": 0.05092173679124537,
        "lon": 86.95868634422975,
        "alt_km": 35800.86756343041,
        "timestamp": "2025-12-10T07:43:54.417142+00:00",
        "meta_object_name": "GOES 14",
        "meta_object_id": "2009-033A",
        "meta_epoch": "2025-12-09T19:08:23.645760",
        "meta_mean_motion": 1.00273255,
        "meta_eccentricity": 0.0004015,
        "meta_inclination": 1.1921,
        "meta_ra_of_asc_node": 85.4419,
        "meta_arg_of_pericenter": 154.9274,
        "meta_mean_anomaly": 17.2143,
        "meta_ephemeris_type": 0,
        "meta_classification_type": "U",
        "meta_norad_cat_id": 35491,
        "meta_element_set_no": 999,
        "meta_rev_at_epoch": 469,
        "meta_bstar": 0,
        "meta_mean_motion_dot": -6.5e-07,
        "meta_mean_motion_ddot": 0,
        "tle_line1": "1 35491U 09033A   25343.79749590 -.00000065  00000+0  00000+0 0  9994",
        "tle_line2": "2 35491   1.1921  85.4419 0004015 154.9274  17.2143  1.00273255  4693"
      },
      "geometry": {
        "type": "Point",
        "coordinates": [
          86.95868634422975,
          0.05092173679124537
        ]
      }
    },
    {
      "type": "Feature",
      "properties": {
        "norad_id": 35951,
        "name": "DMSP 5D-3 F18 (USA 210)",
        "group": "weather",
        "lat": 3.655513266478323,
        "lon": -39.837440751569154,
        "alt_km": 841.8333801112904,
        "timestamp": "2025-12-10T07:43:54.417155+00:00",
        "meta_object_name": "DMSP 5D-3 F18 (USA 210)",
        "meta_object_id": "2009-057A",
        "meta_epoch": "2025-12-09T19:49:58.762848",
        "meta_mean_motion": 14.14766714,
        "meta_eccentricity": 0.0012095,
        "meta_inclination": 98.8832,
        "meta_ra_of_asc_node": 320.2418,
        "meta_arg_of_pericenter": 70.3505,
        "meta_mean_anomaly": 289.8972,
        "meta_ephemeris_type": 0,
        "meta_classification_type": "U",
        "meta_norad_cat_id": 35951,
        "meta_element_set_no": 999,
        "meta_rev_at_epoch": 83281,
        "meta_bstar": 0.00026278,
        "meta_mean_motion_dot": 4.62e-06,
        "meta_mean_motion_ddot": 0,
        "tle_line1": "1 35951U 09057A   25343.82637457  .00000462  00000+0  26278-3 0  9992",
        "tle_line2": "2 35951  98.8832 320.2418 0012095  70.3505 289.8972 14.14766714832818"
      },
      "geometry": {
        "type": "Point",
        "coordinates": [
          -39.837440751569154,
          3.655513266478323
        ]
      }
    },
    {
      "type": "Feature",
      "properties": {
        "norad_id": 36411,
        "name": "EWS-G2 (GOES 15)",
        "group": "weather",
        "lat": 0.11155438415653954,
        "lon": -103.30066997120221,
        "alt_km": 35761.822889981464,
        "timestamp": "2025-12-10T07:43:54.417168+00:00",
        "meta_object_name": "EWS-G2 (GOES 15)",
        "meta_object_id": "2010-008A",
        "meta_epoch": "2025-12-09T19:22:38.521920",
        "meta_mean_motion": 1.00269111,
        "meta_eccentricity": 0.0005904,
        "meta_inclination": 0.8068,
        "meta_ra_of_asc_node": 86.0542,
        "meta_arg_of_pericenter": 173.7332,
        "meta_mean_anomaly": 171.0978,
        "meta_ephemeris_type": 0,
        "meta_classification_type": "U",
        "meta_norad_cat_id": 36411,
        "meta_element_set_no": 999,
        "meta_rev_at_epoch": 5773,
        "meta_bstar": 0,
        "meta_mean_motion_dot": 4.1e-07,
        "meta_mean_motion_ddot": 0,
        "tle_line1": "1 36411U 10008A   25343.80739030  .00000041  00000+0  00000+0 0  9994",
        "tle_line2": "2 36411   0.8068  86.0542 0005904 173.7332 171.0978  1.00269111 57734"
      },
      "geometry": {
        "type": "Point",
        "coordinates": [
          -103.30066997120221,
          0.11155438415653954
        ]
      }
    }
  ]
}